{
    "links": {
        "self": "http://www.neowsapp.com/rest/v1/neo/3653415?api_key=iIulBulltgU6a56xZRHN4H3l9WmuAYTsLGpBGhQ2"
    },
    "id": "3653415",
    "neo_reference_id": "3653415",
    "name": "(2013 VM2)",
    "designation": "2013 VM2",
    "nasa_jpl_url": "http://ssd.jpl.nasa.gov/sbdb.cgi?sstr=3653415",
    "absolute_magnitude_h": 24.2,
    "estimated_diameter": {
        "kilometers": {
            "estimated_diameter_min": 0.0384197891,
            "estimated_diameter_max": 0.0859092601
        },
        "meters": {
            "estimated_diameter_min": 38.4197891064,
            "estimated_diameter_max": 85.9092601232
        },
        "miles": {
            "estimated_diameter_min": 0.0238729428,
            "estimated_diameter_max": 0.0533815229
        },
        "feet": {
            "estimated_diameter_min": 126.0491808919,
            "estimated_diameter_max": 281.8545369825
        }
    },
    "is_potentially_hazardous_asteroid": false,
    "close_approach_data": [
        {
            "close_approach_date": "2003-08-16",
            "close_approach_date_full": "2003-Aug-16 14:27",
            "epoch_date_close_approach": 1061044020000,
            "relative_velocity": {
                "kilometers_per_second": "19.4394962337",
                "kilometers_per_hour": "69982.1864413787",
                "miles_per_hour": "43484.2091252"
            },
            "miss_distance": {
                "astronomical": "0.4586249211",
                "lunar": "178.4050943079",
                "kilometers": "68609311.325478057",
                "miles": "42631849.1925369066"
            },
            "orbiting_body": "Earth"
        },
        {
            "close_approach_date": "2008-09-07",
            "close_approach_date_full": "2008-Sep-07 02:06",
            "epoch_date_close_approach": 1220753160000,
            "relative_velocity": {
                "kilometers_per_second": "11.0046430018",
                "kilometers_per_hour": "39616.7148064321",
                "miles_per_hour": "24616.2859306967"
            },
            "miss_distance": {
                "astronomical": "0.1949876004",
                "lunar": "75.8501765556",
                "kilometers": "29169729.696251148",
                "miles": "18125229.5551879224"
            },
            "orbiting_body": "Earth"
        },
        {
            "close_approach_date": "2013-10-30",
            "close_approach_date_full": "2013-Oct-30 05:52",
            "epoch_date_close_approach": 1383112320000,
            "relative_velocity": {
                "kilometers_per_second": "7.5895143284",
                "kilometers_per_hour": "27322.251582078",
                "miles_per_hour": "16976.9846010973"
            },
            "miss_distance": {
                "astronomical": "0.0320449856",
                "lunar": "12.4654993984",
                "kilometers": "4793861.589940672",
                "miles": "2978767.4647063936"
            },
            "orbiting_body": "Earth"
        },
        {
            "close_approach_date": "2018-11-29",
            "close_approach_date_full": "2018-Nov-29 13:12",
            "epoch_date_close_approach": 1543497120000,
            "relative_velocity": {
                "kilometers_per_second": "15.9648163235",
                "kilometers_per_hour": "57473.338764627",
                "miles_per_hour": "35711.6976340539"
            },
            "miss_distance": {
                "astronomical": "0.3112689348",
                "lunar": "121.0836156372",
                "kilometers": "46565169.643248876",
                "miles": "28934254.7170954488"
            },
            "orbiting_body": "Earth"
        }
    ],
    "orbital_data": {
        "orbit_id": "15",
        "orbit_determination_date": "2017-04-06 08:43:51",
        "first_observation_date": "2013-11-03",
        "last_observation_date": "2013-12-07",
        "data_arc_in_days": 34,
        "observations_used": 91,
        "orbit_uncertainty": "7",
        "minimum_orbit_intersection": ".0315402",
        "jupiter_tisserand_invariant": "3.861",
        "epoch_osculation": "2459000.5",
        "eccentricity": ".4550305891614485",
        "semi_major_axis": "1.854051011640028",
        "inclination": "7.291148592084053",
        "ascending_node_longitude": "43.33016539257666",
        "orbital_period": "922.1062068573459",
        "perihelion_distance": "1.010401087478086",
        "perihelion_argument": "338.7542757289495",
        "aphelion_distance": "2.69770093580197",
        "perihelion_time": "2459349.799973617442",
        "mean_anomaly": "223.6296019188027",
        "mean_motion": ".3904105593507773",
        "equinox": "J2000",
        "orbit_class": {
            "orbit_class_type": "APO",
            "orbit_class_description": "Near-Earth asteroid orbits which cross the Earth’s orbit similar to that of 1862 Apollo",
            "orbit_class_range": "a (semi-major axis) > 1.0 AU; q (perihelion) < 1.017 AU"
        }
    },
    "is_sentry_object": false
}